ONEWEB-0124             
1 47270U 20100N   25248.14566378 -.00000010  00000+0 -61953-4 0  9994
2 47270  87.8887  47.3213 0001746  87.7303 272.4026 13.12441602227181
ONEWEB-0125             
1 47271U 20100P   25247.97048203  .00000368  00000+0  98681-3 0  9998
2 47271  87.8886  47.3192 0001990  91.3653 268.7704 13.12442692227223
ONEWEB-0126             
1 47272U 20100Q   25248.14416378  .00000057  00000+0  12403-3 0  9994
2 47272  87.8895  47.3053 0001667  96.8144 263.3174 13.12441423227319
ONEWEB-0127             
1 47273U 20100R   25248.18621206  .00000117  00000+0  29059-3 0  9999
2 47273  87.8888  47.3100 0001588  97.0921 263.0389 13.12444392227349
ONEWEB-0128             
1 47274U 20100S   25248.20892511  .00000470  00000+0  12712-2 0  9991
2 47274  87.8881  47.3299 0001439  89.7181 270.4113 13.12442327227368
ONEWEB-0129             
1 47275U 20100T   25248.18783687  .00000204  00000+0  53243-3 0  9992
2 47275  87.8889  47.2783 0001609 135.8600 224.2657 13.12444516227296
ONEWEB-0130             
1 47276U 20100U   25248.13917452  .00000310  00000+0  82654-3 0  9993
2 47276  87.8883  47.2853 0001571  93.4992 266.6316 13.12442156227256
ONEWEB-0131             
1 47277U 20100V   25248.13594104  .00000359  00000+0  96289-3 0  9991
2 47277  87.8887  47.3155 0001626  92.3082 267.8233 13.12442306227298
ONEWEB-0132             
1 47278U 20100W   25248.16512497 -.00000338  00000+0 -97370-3 0  9991
2 47278  87.8886  47.3117 0001822  87.5253 272.6084 13.12442875227198
ONEWEB-0133             
1 47279U 20100X   25248.18120027 -.00000054  00000+0 -18497-3 0  9996
2 47279  87.8872  47.2790 0001601  89.1642 270.9670 13.12445079227354
ONEWEB-0134             
1 47280U 20100Y   25248.15052673 -.00000105  00000+0 -32683-3 0  9996
2 47280  87.8886  47.2710 0001412  93.9264 266.2026 13.12442488227327
ONEWEB-0135             
1 47281U 20100Z   25247.96885833  .00000352  00000+0  94246-3 0  9992
2 47281  87.8887  47.3479 0001264  86.6476 273.4797 13.12442073227326
ONEWEB-0136             
1 47282U 20100AA  25248.14079224  .00000309  00000+0  82262-3 0  9990
2 47282  87.8885  47.2819 0001254  99.7959 260.3311 13.12441637227278
ONEWEB-0137             
1 47283U 20100AB  25248.17485613 -.00000256  00000+0 -74682-3 0  9997
2 47283  87.8885  47.2812 0001841  98.4573 261.6765 13.12444123227182
ONEWEB-0138             
1 47284U 20100AC  25248.00129720 -.00000426  00000+0 -12196-2 0  9994
2 47284  87.8885  47.3254 0001592  95.5776 264.5534 13.12441239227248
ONEWEB-0139             
1 47285U 20100AD  25248.19285857  .00000405  00000+0  10917-2 0  9993
2 47285  87.8880  47.2793 0001750  91.2671 268.8658 13.12443312227343
ONEWEB-0140             
1 47286U 20100AE  25248.14728488 -.00000018  00000+0 -84573-4 0  9994
2 47286  87.8883  47.2721 0001564  94.3114 265.8194 13.12442476227305
