[{"OBJECT_NAME":"ONEWEB-0124","OBJECT_ID":"2020-100N","EPOCH":"2025-09-05T03:29:45.350592","MEAN_MOTION":13.12441602,"ECCENTRICITY":0.00017468,"INCLINATION":87.8887,"RA_OF_ASC_NODE":47.3213,"ARG_OF_PERICENTER":87.7303,"MEAN_ANOMALY":272.4026,"EPHEMERIS_TYPE":0,"CLASSIFICATION_TYPE":"U","NORAD_CAT_ID":47270,"ELEMENT_SET_NO":999,"REV_AT_EPOCH":22718,"BSTAR":-6.1953213e-5,"MEAN_MOTION_DOT":-1.0e-7,"MEAN_MOTION_DDOT":0},{"OBJECT_NAME":"ONEWEB-0125","OBJECT_ID":"2020-100P","EPOCH":"2025-09-04T23:17:29.647392","MEAN_MOTION":13.12442692,"ECCENTRICITY":0.00019907,"INCLINATION":87.8886,"RA_OF_ASC_NODE":47.3192,"ARG_OF_PERICENTER":91.3653,"MEAN_ANOMALY":268.7704,"EPHEMERIS_TYPE":0,"CLASSIFICATION_TYPE":"U","NORAD_CAT_ID":47271,"ELEMENT_SET_NO":999,"REV_AT_EPOCH":22722,"BSTAR":0.00098681302,"MEAN_MOTION_DOT":3.68e-6,"MEAN_MOTION_DDOT":0},{"OBJECT_NAME":"ONEWEB-0126","OBJECT_ID":"2020-100Q","EPOCH":"2025-09-05T03:27:35.750592","MEAN_MOTION":13.12441423,"ECCENTRICITY":0.00016672,"INCLINATION":87.8895,"RA_OF_ASC_NODE":47.3053,"ARG_OF_PERICENTER":96.8144,"MEAN_ANOMALY":263.3174,"EPHEMERIS_TYPE":0,"CLASSIFICATION_TYPE":"U","NORAD_CAT_ID":47272,"ELEMENT_SET_NO":999,"REV_AT_EPOCH":22731,"BSTAR":0.00012403178,"MEAN_MOTION_DOT":5.7e-7,"MEAN_MOTION_DDOT":0},{"OBJECT_NAME":"ONEWEB-0127","OBJECT_ID":"2020-100R","EPOCH":"2025-09-05T04:28:08.721984","MEAN_MOTION":13.12444392,"ECCENTRICITY":0.00015883,"INCLINATION":87.8888,"RA_OF_ASC_NODE":47.31,"ARG_OF_PERICENTER":97.0921,"MEAN_ANOMALY":263.0389,"EPHEMERIS_TYPE":0,"CLASSIFICATION_TYPE":"U","NORAD_CAT_ID":47273,"ELEMENT_SET_NO":999,"REV_AT_EPOCH":22734,"BSTAR":0.00029058533,"MEAN_MOTION_DOT":1.17e-6,"MEAN_MOTION_DDOT":0},{"OBJECT_NAME":"ONEWEB-0128","OBJECT_ID":"2020-100S","EPOCH":"2025-09-05T05:00:51.129504","MEAN_MOTION":13.12442327,"ECCENTRICITY":0.00014398,"INCLINATION":87.8881,"RA_OF_ASC_NODE":47.3299,"ARG_OF_PERICENTER":89.7181,"MEAN_ANOMALY":270.4113,"EPHEMERIS_TYPE":0,"CLASSIFICATION_TYPE":"U","NORAD_CAT_ID":47274,"ELEMENT_SET_NO":999,"REV_AT_EPOCH":22736,"BSTAR":0.0012711874,"MEAN_MOTION_DOT":4.7e-6,"MEAN_MOTION_DDOT":0},{"OBJECT_NAME":"ONEWEB-0129","OBJECT_ID":"2020-100T","EPOCH":"2025-09-05T04:30:29.105568","MEAN_MOTION":13.12444516,"ECCENTRICITY":0.00016098,"INCLINATION":87.8889,"RA_OF_ASC_NODE":47.2783,"ARG_OF_PERICENTER":135.86,"MEAN_ANOMALY":224.2657,"EPHEMERIS_TYPE":0,"CLASSIFICATION_TYPE":"U","NORAD_CAT_ID":47275,"ELEMENT_SET_NO":999,"REV_AT_EPOCH":22729,"BSTAR":0.00053242973,"MEAN_MOTION_DOT":2.04e-6,"MEAN_MOTION_DDOT":0},{"OBJECT_NAME":"ONEWEB-0130","OBJECT_ID":"2020-100U","EPOCH":"2025-09-05T03:20:24.678528","MEAN_MOTION":13.12442156,"ECCENTRICITY":0.00015713,"INCLINATION":87.8883,"RA_OF_ASC_NODE":47.2853,"ARG_OF_PERICENTER":93.4992,"MEAN_ANOMALY":266.6316,"EPHEMERIS_TYPE":0,"CLASSIFICATION_TYPE":"U","NORAD_CAT_ID":47276,"ELEMENT_SET_NO":999,"REV_AT_EPOCH":22725,"BSTAR":0.00082653698,"MEAN_MOTION_DOT":3.1e-6,"MEAN_MOTION_DDOT":0},{"OBJECT_NAME":"ONEWEB-0131","OBJECT_ID":"2020-100V","EPOCH":"2025-09-05T03:15:45.305856","MEAN_MOTION":13.12442306,"ECCENTRICITY":0.00016261,"INCLINATION":87.8887,"RA_OF_ASC_NODE":47.3155,"ARG_OF_PERICENTER":92.3082,"MEAN_ANOMALY":267.8233,"EPHEMERIS_TYPE":0,"CLASSIFICATION_TYPE":"U","NORAD_CAT_ID":47277,"ELEMENT_SET_NO":999,"REV_AT_EPOCH":22729,"BSTAR":0.00096289142,"MEAN_MOTION_DOT":3.59e-6,"MEAN_MOTION_DDOT":0},{"OBJECT_NAME":"ONEWEB-0132","OBJECT_ID":"2020-100W","EPOCH":"2025-09-05T03:57:46.797408","MEAN_MOTION":13.12442875,"ECCENTRICITY":0.00018229,"INCLINATION":87.8886,"RA_OF_ASC_NODE":47.3117,"ARG_OF_PERICENTER":87.5253,"MEAN_ANOMALY":272.6084,"EPHEMERIS_TYPE":0,"CLASSIFICATION_TYPE":"U","NORAD_CAT_ID":47278,"ELEMENT_SET_NO":999,"REV_AT_EPOCH":22719,"BSTAR":-0.00097369524,"MEAN_MOTION_DOT":-3.38e-6,"MEAN_MOTION_DDOT":0},{"OBJECT_NAME":"ONEWEB-0133","OBJECT_ID":"2020-100X","EPOCH":"2025-09-05T04:20:55.703328","MEAN_MOTION":13.12445079,"ECCENTRICITY":0.00016013,"INCLINATION":87.8872,"RA_OF_ASC_NODE":47.279,"ARG_OF_PERICENTER":89.1642,"MEAN_ANOMALY":270.967,"EPHEMERIS_TYPE":0,"CLASSIFICATION_TYPE":"U","NORAD_CAT_ID":47279,"ELEMENT_SET_NO":999,"REV_AT_EPOCH":22735,"BSTAR":-0.00018497144,"MEAN_MOTION_DOT":-5.4e-7,"MEAN_MOTION_DDOT":0},{"OBJECT_NAME":"ONEWEB-0134","OBJECT_ID":"2020-100Y","EPOCH":"2025-09-05T03:36:45.509472","MEAN_MOTION":13.12442488,"ECCENTRICITY":0.0001412,"INCLINATION":87.8886,"RA_OF_ASC_NODE":47.271,"ARG_OF_PERICENTER":93.9264,"MEAN_ANOMALY":266.2026,"EPHEMERIS_TYPE":0,"CLASSIFICATION_TYPE":"U","NORAD_CAT_ID":47280,"ELEMENT_SET_NO":999,"REV_AT_EPOCH":22732,"BSTAR":-0.00032682817,"MEAN_MOTION_DOT":-1.05e-6,"MEAN_MOTION_DDOT":0},{"OBJECT_NAME":"ONEWEB-0135","OBJECT_ID":"2020-100Z","EPOCH":"2025-09-04T23:15:09.359712","MEAN_MOTION":13.12442073,"ECCENTRICITY":0.00012646,"INCLINATION":87.8887,"RA_OF_ASC_NODE":47.3479,"ARG_OF_PERICENTER":86.6476,"MEAN_ANOMALY":273.4797,"EPHEMERIS_TYPE":0,"CLASSIFICATION_TYPE":"U","NORAD_CAT_ID":47281,"ELEMENT_SET_NO":999,"REV_AT_EPOCH":22732,"BSTAR":0.00094246051,"MEAN_MOTION_DOT":3.52e-6,"MEAN_MOTION_DDOT":0},{"OBJECT_NAME":"ONEWEB-0136","OBJECT_ID":"2020-100AA","EPOCH":"2025-09-05T03:22:44.449536","MEAN_MOTION":13.12441637,"ECCENTRICITY":0.00012542,"INCLINATION":87.8885,"RA_OF_ASC_NODE":47.2819,"ARG_OF_PERICENTER":99.7959,"MEAN_ANOMALY":260.3311,"EPHEMERIS_TYPE":0,"CLASSIFICATION_TYPE":"U","NORAD_CAT_ID":47282,"ELEMENT_SET_NO":999,"REV_AT_EPOCH":22727,"BSTAR":0.00082262414,"MEAN_MOTION_DOT":3.09e-6,"MEAN_MOTION_DDOT":0},{"OBJECT_NAME":"ONEWEB-0137","OBJECT_ID":"2020-100AB","EPOCH":"2025-09-05T04:11:47.569632","MEAN_MOTION":13.12444123,"ECCENTRICITY":0.00018414,"INCLINATION":87.8885,"RA_OF_ASC_NODE":47.2812,"ARG_OF_PERICENTER":98.4573,"MEAN_ANOMALY":261.6765,"EPHEMERIS_TYPE":0,"CLASSIFICATION_TYPE":"U","NORAD_CAT_ID":47283,"ELEMENT_SET_NO":999,"REV_AT_EPOCH":22718,"BSTAR":-0.00074681796,"MEAN_MOTION_DOT":-2.56e-6,"MEAN_MOTION_DDOT":0},{"OBJECT_NAME":"ONEWEB-0138","OBJECT_ID":"2020-100AC","EPOCH":"2025-09-05T00:01:52.078080","MEAN_MOTION":13.12441239,"ECCENTRICITY":0.00015926,"INCLINATION":87.8885,"RA_OF_ASC_NODE":47.3254,"ARG_OF_PERICENTER":95.5776,"MEAN_ANOMALY":264.5534,"EPHEMERIS_TYPE":0,"CLASSIFICATION_TYPE":"U","NORAD_CAT_ID":47284,"ELEMENT_SET_NO":999,"REV_AT_EPOCH":22724,"BSTAR":-0.0012195568,"MEAN_MOTION_DOT":-4.26e-6,"MEAN_MOTION_DDOT":0},{"OBJECT_NAME":"ONEWEB-0139","OBJECT_ID":"2020-100AD","EPOCH":"2025-09-05T04:37:42.980448","MEAN_MOTION":13.12443312,"ECCENTRICITY":0.00017506,"INCLINATION":87.888,"RA_OF_ASC_NODE":47.2793,"ARG_OF_PERICENTER":91.2671,"MEAN_ANOMALY":268.8658,"EPHEMERIS_TYPE":0,"CLASSIFICATION_TYPE":"U","NORAD_CAT_ID":47285,"ELEMENT_SET_NO":999,"REV_AT_EPOCH":22734,"BSTAR":0.0010916618,"MEAN_MOTION_DOT":4.05e-6,"MEAN_MOTION_DDOT":0},{"OBJECT_NAME":"ONEWEB-0140","OBJECT_ID":"2020-100AE","EPOCH":"2025-09-05T03:32:05.413632","MEAN_MOTION":13.12442476,"ECCENTRICITY":0.00015643,"INCLINATION":87.8883,"RA_OF_ASC_NODE":47.2721,"ARG_OF_PERICENTER":94.3114,"MEAN_ANOMALY":265.8194,"EPHEMERIS_TYPE":0,"CLASSIFICATION_TYPE":"U","NORAD_CAT_ID":47286,"ELEMENT_SET_NO":999,"REV_AT_EPOCH":22730,"BSTAR":-8.4572918e-5,"MEAN_MOTION_DOT":-1.8e-7,"MEAN_MOTION_DDOT":0}]
